{
    "links": {
        "self": "http://www.neowsapp.com/rest/v1/neo/3596673?api_key=iIulBulltgU6a56xZRHN4H3l9WmuAYTsLGpBGhQ2"
    },
    "id": "3596673",
    "neo_reference_id": "3596673",
    "name": "(2012 BY76)",
    "designation": "2012 BY76",
    "nasa_jpl_url": "http://ssd.jpl.nasa.gov/sbdb.cgi?sstr=3596673",
    "absolute_magnitude_h": 25.5,
    "estimated_diameter": {
        "kilometers": {
            "estimated_diameter_min": 0.0211132445,
            "estimated_diameter_max": 0.0472106499
        },
        "meters": {
            "estimated_diameter_min": 21.113244479,
            "estimated_diameter_max": 47.2106498806
        },
        "miles": {
            "estimated_diameter_min": 0.0131191578,
            "estimated_diameter_max": 0.0293353287
        },
        "feet": {
            "estimated_diameter_min": 69.2691770164,
            "estimated_diameter_max": 154.8905885541
        }
    },
    "is_potentially_hazardous_asteroid": false,
    "close_approach_data": [
        {
            "close_approach_date": "2011-12-30",
            "close_approach_date_full": "2011-Dec-30 10:56",
            "epoch_date_close_approach": 1325242560000,
            "relative_velocity": {
                "kilometers_per_second": "7.4279683212",
                "kilometers_per_hour": "26740.6859562481",
                "miles_per_hour": "16615.6223376476"
            },
            "miss_distance": {
                "astronomical": "0.0588366394",
                "lunar": "22.8874527266",
                "kilometers": "8801835.932198078",
                "miles": "5469207.2377583564"
            },
            "orbiting_body": "Earth"
        }
    ],
    "orbital_data": {
        "orbit_id": "5",
        "orbit_determination_date": "2017-04-06 08:51:12",
        "first_observation_date": "2012-01-24",
        "last_observation_date": "2012-01-29",
        "data_arc_in_days": 5,
        "observations_used": 9,
        "orbit_uncertainty": "9",
        "minimum_orbit_intersection": ".0497141",
        "jupiter_tisserand_invariant": "4.611",
        "epoch_osculation": "2455951.5",
        "eccentricity": ".369961543033493",
        "semi_major_axis": "1.429451070454577",
        "inclination": "4.522957889588263",
        "ascending_node_longitude": "141.4700924544159",
        "orbital_period": "624.241112942123",
        "perihelion_distance": ".9006091467383232",
        "perihelion_argument": "272.0883598944308",
        "aphelion_distance": "1.95829299417083",
        "perihelion_time": "2455889.603795430612",
        "mean_anomaly": "35.69555606480156",
        "mean_motion": ".5767002405581346",
        "equinox": "J2000",
        "orbit_class": {
            "orbit_class_type": "APO",
            "orbit_class_description": "Near-Earth asteroid orbits which cross the Earth’s orbit similar to that of 1862 Apollo",
            "orbit_class_range": "a (semi-major axis) > 1.0 AU; q (perihelion) < 1.017 AU"
        }
    },
    "is_sentry_object": false
}